NORAD_CAT_ID,OBJECT_NAME,OBJECT_TYPE,EPOCH,MEAN_MOTION,ECCENTRICITY,INCLINATION,RA_OF_ASC_NODE,ARG_OF_PERICENTER,MEAN_ANOMALY,BSTAR,MEAN_MOTION_DOT,MEAN_MOTION_DDOT,TLE_LINE0,TLE_LINE1,TLE_LINE2,SEMIMAJOR_AXIS,PERIOD,APOGEE,PERIGEE,DECAYED
49133.0,STARLINK-3077,PAYLOAD,2021-11-12 20:00:01,15.64923727,0.000349,70.0001,319.0992,271.7759,41.5267,-0.0072393999999999,-0.00657286,0.0,0 STARLINK-3077,1 49133U 21082D   21316.83334491 -.00657286  00000-0 -72394-2 0  9994,2 49133  70.0001 319.0992 0003490 271.7759  41.5267 15.64923727  9478,6751.595,92.017,375.816,371.104,0.0
49133.0,STARLINK-3077,PAYLOAD,2021-11-13 14:00:01,15.63875721,0.0003388,69.9997,317.0089,276.8878,299.0067,-0.0076271999999999,-0.0066372,0.0,0 STARLINK-3077,1 49133U 21082D   21317.58334491 -.00663720  00000-0 -76272-2 0  9996,2 49133  69.9997 317.0089 0003388 276.8878 299.0067 15.63875721  3682,6754.611,92.079,378.765,374.18800000000016,0.0
49133.0,STARLINK-3077,PAYLOAD,2021-11-13 22:00:00,15.63404897,0.0003531,69.9999,316.081,279.7648,11.9278,-0.0076955,-0.00657842,0.0,0 STARLINK-3077,1 49133U 21082D   21317.91667824 -.00657842  00000-0 -76955-2 0  9998,2 49133  69.9999 316.0810 0003531 279.7648  11.9278 15.63404897  9641,6755.967,92.107,380.218,375.447,0.0
49133.0,STARLINK-3077,PAYLOAD,2021-11-14 14:00:01,15.62404288,0.0003651,69.9992,314.2261,281.4599,160.1796,-0.0068546,-0.00569517,0.0,0 STARLINK-3077,1 49133U 21082D   21318.58334491 -.00569517  00000-0 -68546-2 0  9991,2 49133  69.9992 314.2261 0003651 281.4599 160.1796 15.62404288  3652,6758.851,92.166,383.184,378.249,0.0
49133.0,STARLINK-3077,PAYLOAD,2021-11-14 22:00:00,15.61871139,0.000356,69.9994,313.3003,280.3838,235.4111,-0.0059587,-0.00489621,0.0,0 STARLINK-3077,1 49133U 21082D   21318.91667824 -.00489621  00000-0 -59587-2 0  9999,2 49133  69.9994 313.3003 0003560 280.3838 235.4111 15.61871139  9791,6760.389,92.197,384.661,379.848,0.0
49133.0,STARLINK-3077,PAYLOAD,2021-11-15 06:00:00,15.61533181,0.0003494,70.0001,312.3755,284.9555,304.3198,-0.0082434,-0.00655174,0.0,0 STARLINK-3077,1 49133U 21082D   21319.25001157 -.00655174  00000-0 -82434-2 0  9993,2 49133  70.0001 312.3755 0003494 284.9555 304.3198 15.61533181  9858,6761.365,92.217,385.592,380.867,0.0
49133.0,STARLINK-3077,PAYLOAD,2021-11-15 14:00:01,15.61070051,0.0003435,69.9999,311.4506,273.3467,28.9209,-0.0084877,-0.00662034,0.0,0 STARLINK-3077,1 49133U 21082D   21319.58334491 -.00662034  00000-0 -84877-2 0  9995,2 49133  69.9999 311.4506 0003435 273.3467  28.9209 15.61070051  3683,6762.7019999999975,92.244,386.89,382.244,0.0
49133.0,STARLINK-3077,PAYLOAD,2021-11-15 22:00:00,15.60599387,0.0003652,69.9999,310.5267,281.6791,93.0228,-0.008572,-0.00657039,0.0,0 STARLINK-3077,1 49133U 21082D   21319.91667824 -.00657039  00000-0 -85720-2 0  9998,2 49133  69.9999 310.5267 0003652 281.6791  93.0228 15.60599387  3692,6764.062,92.272,388.397,383.456,0.0
49133.0,STARLINK-3077,PAYLOAD,2021-11-16 06:00:00,15.60133763,0.0003708,70.0001,309.6032,286.9024,159.6715,-0.0087719,-0.00660198,0.0,0 STARLINK-3077,1 49133U 21082D   21320.25001157 -.00660198  00000-0 -87719-2 0  9998,2 49133  70.0001 309.6032 0003708 286.9024 159.6715 15.60133763 10002,6765.406999999997,92.3,389.781,384.764,0.0
49133.0,STARLINK-3077,PAYLOAD,2021-11-16 14:00:01,15.59667026,0.0003386,69.9997,308.6802,276.9768,240.9089,-0.0089424,-0.0066097,0.0,0 STARLINK-3077,1 49133U 21082D   21320.58334491 -.00660970  00000-0 -89424-2 0  9997,2 49133  69.9997 308.6802 0003386 276.9768 240.9089 15.59667026  3689,6766.757,92.327,390.913,386.331,0.0
49133.0,STARLINK-3077,PAYLOAD,2021-11-16 22:00:00,15.59198978,0.0003388,70.0,307.7581,278.6292,310.0078,-0.0090875,-0.00659901,0.0,0 STARLINK-3077,1 49133U 21082D   21320.91667824 -.00659901  00000-0 -90875-2 0  9997,2 49133  70.0000 307.7581 0003388 278.6292 310.0078 15.59198978  3709,6768.111,92.355,392.269,387.6830000000001,0.0
49133.0,STARLINK-3077,PAYLOAD,2021-11-17 06:00:02,15.58729603,0.0003579,70.0,306.8367,284.8414,14.052,-0.0092065,-0.00657007,0.0,0 STARLINK-3077,1 49133U 21082D   21321.25002315 -.00657007  00000-0 -92065-2 0  9991,2 49133  70.0000 306.8367 0003579 284.8414  14.0520 15.58729603 10163,6769.47,92.383,393.758,388.912,0.0
49133.0,STARLINK-3077,PAYLOAD,2021-11-17 10:00:00,15.58494179,0.0003402,69.9998,306.3758,275.8,237.914,-0.0092328,-0.00653291,0.0,0 STARLINK-3077,1 49133U 21082D   21321.41667824 -.00653291  00000-0 -92328-2 0  9994,2 49133  69.9998 306.3758 0003402 275.8000 237.9140 15.58494179  3670,6770.151,92.397,394.32,389.713,0.0
49133.0,STARLINK-3077,PAYLOAD,2021-11-17 22:00:01,15.57795024,0.0003661,70.0,304.9955,284.5674,153.0254,-0.0095469,-0.00657633,0.0,0 STARLINK-3077,1 49133U 21082D   21321.91668981 -.00657633  00000-0 -95469-2 0  9997,2 49133  70.0000 304.9955 0003661 284.5674 153.0254 15.57795024  3677,6772.177,92.438,396.521,391.56300000000016,0.0
49133.0,STARLINK-3077,PAYLOAD,2021-11-17 23:12:31,15.58844697,0.0002835,69.9973,304.8462,286.9658,73.1221,-0.0035796,-0.0026906,0.0,0 STARLINK-3077,1 49133U 21082D   21321.96703603 -.00269060  00000-0 -35796-2 0  9993,2 49133  69.9973 304.8462 0002835 286.9658  73.1221 15.58844697 10277,6769.137,92.376,392.921,389.082,0.0
49133.0,STARLINK-3077,PAYLOAD,2021-11-18 06:00:00,15.57327176,0.0003625,70.0,304.076,288.3738,217.6631,-0.0097096,-0.00657212,0.0,0 STARLINK-3077,1 49133U 21082D   21322.25001157 -.00657212  00000-0 -97096-2 0  9992,2 49133  70.0000 304.0760 0003625 288.3738 217.6631 15.57327176 10319,6773.533,92.466,397.854,392.943,0.0
49133.0,STARLINK-3077,PAYLOAD,2021-11-18 14:00:01,15.56862093,0.0003347,69.9997,303.1569,277.8602,296.1241,-0.0099443,-0.00661095,0.0,0 STARLINK-3077,1 49133U 21082D   21322.58334491 -.00661095  00000-0 -99443-2 0  9990,2 49133  69.9997 303.1569 0003347 277.8602 296.1241 15.56862093  3684,6774.882,92.494,399.015,394.48,0.0
49133.0,STARLINK-3077,PAYLOAD,2021-11-18 22:00:00,15.56392952,0.000346,70.0001,302.2385,280.0388,1.3333,-0.010061,-0.00657566,0.0,0 STARLINK-3077,1 49133U 21082D   21322.91667824 -.00657566  00000-0 -10061-1 0  9992,2 49133  70.0001 302.2385 0003460 280.0388   1.3333 15.56392952  3705,6776.244000000002,92.522,400.453,395.764,0.0
49133.0,STARLINK-3077,PAYLOAD,2021-11-19 08:00:01,15.55788184,0.000338,69.9999,301.0908,276.8148,178.0128,-0.0097951,-0.00628238,0.0,0 STARLINK-3077,1 49133U 21082D   21323.33334491 -.00628238  00000-0 -97951-2 0  9998,2 49133  69.9999 301.0908 0003380 276.8148 178.0128 15.55788184 10486,6777.999,92.558,402.155,397.573,0.0
49133.0,STARLINK-3077,PAYLOAD,2021-11-19 14:00:01,15.55458163,0.0003506,69.9998,300.4039,274.1936,140.2718,-0.010425,-0.006581,0.0,0 STARLINK-3077,1 49133U 21082D   21323.58334491 -.00658100  00000-0 -10425-1 0  9996,2 49133  69.9998 300.4039 0003506 274.1936 140.2718 15.55458163  3691,6778.958000000001,92.577,403.2,398.446,0.0
49133.0,STARLINK-3077,PAYLOAD,2021-11-19 22:00:00,15.54990348,0.0003551,70.0002,299.4875,284.1583,196.0125,-0.01059,-0.00657163,0.0,0 STARLINK-3077,1 49133U 21082D   21323.91667824 -.00657163  00000-0 -10590-1 0  9993,2 49133  70.0002 299.4875 0003551 284.1583 196.0125 15.54990348  3690,6780.318,92.605,404.59,399.775,0.0
49133.0,STARLINK-3077,PAYLOAD,2021-11-20 08:00:01,15.54389533,0.0003466,70.0,298.3422,278.1723,13.3498,-0.010403,-0.00633328,0.0,0 STARLINK-3077,1 49133U 21082D   21324.33334491 -.00633328  00000-0 -10403-1 0  9991,2 49133  70.0000 298.3422 0003466 278.1723  13.3498 15.54389533 10632,6782.065,92.641,406.28,401.579,0.0
49133.0,STARLINK-3077,PAYLOAD,2021-11-20 14:00:01,15.54056849,0.0003343,69.9998,297.6566,277.60200000000003,332.2982,-0.011021,-0.00660548,0.0,0 STARLINK-3077,1 49133U 21082D   21324.58334491 -.00660548  00000-0 -11021-1 0  9999,2 49133  69.9998 297.6566 0003343 277.6020 332.2982 15.54056849  3683,6783.033,92.661,407.165,402.63,0.0
49133.0,STARLINK-3077,PAYLOAD,2021-11-20 22:00:00,15.53587832,0.0003511,70.0001,296.7422,281.4953,32.4287,-0.011145,-0.00656973,0.0,0 STARLINK-3077,1 49133U 21082D   21324.91667824 -.00656973  00000-0 -11145-1 0  9999,2 49133  70.0001 296.7422 0003511 281.4953  32.4287 15.53587832  3695,6784.398,92.689,408.645,403.881,0.0
49133.0,STARLINK-3077,PAYLOAD,2021-11-21 06:00:00,15.5312187,0.0003633,70.0001,295.8284,284.0781,93.3085,-0.01139,-0.00659915,0.0,0 STARLINK-3077,1 49133U 21082D   21325.25001157 -.00659915  00000-0 -11390-1 0  9999,2 49133  70.0001 295.8284 0003633 284.0781  93.3085 15.53121870 10780,6785.755,92.716,410.085,405.154,0.0
49133.0,STARLINK-3077,PAYLOAD,2021-11-21 14:00:01,15.52653034,0.0003485,69.9998,294.9153,276.002,164.2877,-0.011545,-0.00657768,0.0,0 STARLINK-3077,1 49133U 21082D   21325.58334491 -.00657768  00000-0 -11545-1 0  9991,2 49133  69.9998 294.9153 0003485 276.0020 164.2877 15.52653034  3699,6787.121,92.744,411.351,406.62,0.0
49133.0,STARLINK-3077,PAYLOAD,2021-11-21 22:00:00,15.52184953,0.0003473,70.0002,294.0027,283.4354,219.1959,-0.011705,-0.00655858,0.0,0 STARLINK-3077,1 49133U 21082D   21325.91667824 -.00655858  00000-0 -11705-1 0  9993,2 49133  70.0002 294.0027 0003473 283.4354 219.1959 15.52184953  3698,6788.485,92.772,412.708,407.992,0.0
49133.0,STARLINK-3077,PAYLOAD,2021-11-22 12:00:00,15.51368152,0.0003348,69.9996,292.4072,276.9367,243.4437,-0.012112,-0.00658757,0.0,0 STARLINK-3077,1 49133U 21082D   21326.50001157 -.00658757  00000-0 -12112-1 0  9994,2 49133  69.9996 292.4072 0003348 276.9367 243.4437 15.51368152 10975,6790.868,92.821,415.006,410.459,0.0
49133.0,STARLINK-3077,PAYLOAD,2021-11-22 22:00:00,15.50783022,0.00035,70.0003,291.269,280.558,45.7349,-0.012328,-0.00656814,0.0,0 STARLINK-3077,1 49133U 21082D   21326.91667824 -.00656814  00000-0 -12328-1 0  9999,2 49133  70.0003 291.2690 0003500 280.5580  45.7349 15.50783022  3690,6792.576,92.856,416.818,412.06300000000016,0.0
